IRIDIUM 7 [-]           
1 24793U 97020B   23245.27670369  .00000369  00000+0  12314-3 0  9990
2 24793  86.3908  90.7961 0002312  90.5588 269.5873 14.34876932378315
IRIDIUM 5 [-]           
1 24795U 97020D   23245.47756159  .00003045  00000+0  31076-3 0  9996
2 24795  86.3981  22.3163 0127600 305.9246  53.0190 14.84346877388229
IRIDIUM 4 [-]           
1 24796U 97020E   23244.84004693  .00000402  00000+0  13212-3 0  9992
2 24796  86.3903  88.2893 0002081  92.2941 267.8494 14.35780821378574
IRIDIUM 914 [-]         
1 24836U 97030A   23245.50082961  .00000446  00000+0  13647-3 0  9996
2 24836  86.3888  98.5278 0001802 144.1389 215.9931 14.39574168375144
IRIDIUM 16 [-]          
1 24841U 97030F   23244.91393093  .00000437  00000+0  13948-3 0  9991
2 24841  86.4027 120.0129 0004116  69.4230 290.7409 14.37473414372976
IRIDIUM 911 [-]         
1 24842U 97030G   23245.10133442  .00000557  00000+0  15073-3 0  9998
2 24842  86.4451 119.2979 0016319 112.6056 247.6875 14.45977718380495
IRIDIUM 17 [-]          
1 24870U 97034B   23244.97930912  .00000498  00000+0  16302-3 0  9994
2 24870  86.4013 149.6360 0002853  47.3847 312.7591 14.36574980369626
IRIDIUM 920 [-]         
1 24871U 97034C   23244.62292228  .00000490  00000+0  14824-3 0  9997
2 24871  86.3991 130.5640 0013827  80.7679 279.5083 14.40289165372328
